KUIPER-00074            
1 64821U 25151F   25230.45869656  .00023539  00000+0  67277-3 0  9999
2 64821  51.8776 127.5717 0004665 268.3596  91.6856 15.35865774  5097
KUIPER-00075            
1 64822U 25151G   25230.45281944  .00028610  00000+0  79231-3 0  9996
2 64822  51.8781 127.5429 0004615 256.3083 103.7390 15.36741538  5097
KUIPER-00076            
1 64823U 25151H   25230.46121256  .00023864  00000+0  68390-3 0  9997
2 64823  51.8770 127.5879 0005098 261.5477  98.4931 15.35771591  5098
KUIPER-00077            
1 64824U 25151J   25230.13837081  .00032596  00000+0  92989-3 0  9995
2 64824  51.8790 129.1838 0005662 271.3180  88.7157 15.35742334  5041
KUIPER-00078            
1 64825U 25151K   25230.46307581  .00021142  00000+0  60731-3 0  9994
2 64825  51.8780 127.6040 0005716 275.5807  84.4527 15.35771335  5093
KUIPER-00079            
1 64826U 25151L   25230.58335648  .00054267  00000+0  19443-2 0  9990
2 64826  51.8789 127.1946 0005324 269.8483 299.6402 15.28204215  4646
KUIPER-00080            
1 64827U 25151M   25230.41271416  .00015676  00000+0  53858-3 0  9995
2 64827  51.8791 128.0355 0003116 291.2548  68.8103 15.30273659  5086
KUIPER-00082            
1 64828U 25151N   25229.99807932  .00029578  00000+0  83356-3 0  9997
2 64828  51.8789 129.7396 0004901 255.7083 104.3359 15.36177212  5026
KUIPER-00083            
1 64829U 25151P   25230.13639718  .00043952  00000+0  12451-2 0  9990
2 64829  51.8770 129.1610 0005494 264.0955  95.9405 15.35820635  6233
KUIPER-00084            
1 64830U 25151Q   25230.58335648  .00047856  00000+0  24038-2 0  9997
2 64830  51.8892 128.5284 0007084 251.7747   7.7717 15.16792181  4833
KUIPER-00085            
1 64831U 25151R   25230.45072981  .00023822  00000+0  67069-3 0  9991
2 64831  51.8782 127.5247 0005816 253.8793 106.1553 15.36325482  5094
KUIPER-00086            
1 64832U 25151S   25230.58335648  .00056894  00000+0  16870-2 0  9996
2 64832  51.8781 127.0663 0006026 271.1400   9.9423 15.34268222  4689
KUIPER-00087            
1 64833U 25151T   25230.13046633  .00025321  00000+0  71929-3 0  9999
2 64833  51.8785 129.1295 0005139 253.7508 106.2913 15.36012603  5045
KUIPER-00089            
1 64834U 25151U   25230.13656621  .00030408  00000+0  86738-3 0  9990
2 64834  51.8779 129.1711 0005653 273.1990  86.8349 15.35780714  5044
KUIPER-00090            
1 64835U 25151V   25230.01124630  .00014874  00000+0  43427-3 0  9995
2 64835  51.8774 129.8274 0005500 277.4073  82.6288 15.35523596  5028
KUIPER-00091            
1 64836U 25151W   25230.45278214  .00028925  00000+0  81658-3 0  9992
2 64836  51.8770 127.5353 0005488 251.1363 108.9028 15.36131697  5093
KUIPER-00092            
1 64837U 25151X   25230.00060979  .00031294  00000+0  88341-3 0  9990
2 64837  51.8779 129.7534 0005438 259.9647 100.0726 15.36093086  6238
KUIPER-00093            
1 64838U 25151Y   25230.46099008  .00022513  00000+0  64512-3 0  9994
2 64838  51.8789 127.5958 0005004 264.9565  95.0849 15.35810732  5096
KUIPER-00094            
1 64839U 25151Z   25230.13042085  .00025222  00000+0  71611-3 0  9990
2 64839  51.8767 129.1226 0005493 266.8577  93.1780 15.36029082  5044
KUIPER-00081            
1 65132U 25171A   25230.83337963  .00070128  00000+0  19877-2 0  9998
2 65132  51.8771   9.4133 0006037 145.7238 350.4219 15.35591220  1855
KUIPER-00088            
1 65133U 25171B   25230.83337963  .00070860  00000+0  20121-2 0  9996
2 65133  51.8773   9.4188 0005901 147.8481 346.4416 15.35530543  1305
KUIPER-00095            
1 65134U 25171C   25230.83337963  .00067412  00000+0  19500-2 0  9995
2 65134  51.8765   9.4469 0005326 172.4137 306.5542 15.34975074  1300
KUIPER-00096            
1 65135U 25171D   25230.83337963  .00068571  00000+0  19684-2 0  9996
2 65135  51.8764   9.4331 0005321 162.0555 322.8904 15.35207707  2162
KUIPER-00097            
1 65136U 25171E   25230.83337963  .00067161  00000+0  19467-2 0  9990
2 65136  51.8765   9.4505 0005346 174.5714 302.6501 15.34912791  1386
KUIPER-00098            
1 65137U 25171F   25230.83337963  .00069526  00000+0  19688-2 0  9993
2 65137  51.8771   9.4114 0006247 146.0021 351.0007 15.35623212  1530
KUIPER-00099            
1 65138U 25171G   25230.83337963  .00069105  00000+0  19680-2 0  9999
2 65138  51.8773   9.4239 0006022 151.1955 340.6383 15.35449905  1351
KUIPER-00100            
1 65139U 25171H   25230.83337963  .00069198  00000+0  19817-2 0  9994
2 65139  51.8765   9.4280 0005734 158.2985 329.0425 15.35275598  1655
KUIPER-00102            
1 65140U 25171J   25230.83337963  .00066670  00000+0  19297-2 0  9990
2 65140  51.8762   9.4431 0005212 167.9960 312.0188 15.34961640  2167
KUIPER-00103            
1 65141U 25171K   25230.83337963  .00068468  00000+0  19695-2 0  9990
2 65141  51.8762   9.4363 0005250 164.6171 318.7321 15.35143829  2054
KUIPER-00104            
1 65142U 25171L   25230.83337963  .00068457  00000+0  19629-2 0  9996
2 65142  51.8776   9.4373 0005149 159.2040 326.7348 15.35244507  1303
KUIPER-00105            
1 65143U 25171M   25230.83337963  .00069915  00000+0  19772-2 0  9996
2 65143  51.8771   9.4094 0006383 145.1008 352.9377 15.35661247  2227
KUIPER-00106            
1 65144U 25171N   25230.83337963  .00068994  00000+0  19717-2 0  9992
2 65144  51.8766   9.4244 0005876 155.4248 333.6890 15.35342433  1324
KUIPER-00107            
1 65145U 25171P   25230.83337963  .00068739  00000+0  19666-2 0  9993
2 65145  51.8776   9.4325 0005808 156.6344 331.5707 15.35309361  1306
KUIPER-00108            
1 65146U 25171Q   25230.83337963  .00068335  00000+0  19716-2 0  9992
2 65146  51.8778   9.4484 0005618 172.2300 308.0321 15.35048579  1504
KUIPER-00109            
1 65147U 25171R   25230.83337963  .00074387  00000+0  21138-2 0  9998
2 65147  51.8771   9.4145 0006259 153.7274 340.8954 15.35483096  1758
KUIPER-00110            
1 65148U 25171S   25230.83337963  .00068814  00000+0  19645-2 0  9997
2 65148  51.8775   9.4283 0005800 153.3629 336.6852 15.35376485  1749
KUIPER-00111            
1 65149U 25171T   25230.83337963  .00067739  00000+0  19508-2 0  9991
2 65149  51.8777   9.4421 0005245 167.2198 316.0971 15.35112429  1306
KUIPER-00112            
1 65150U 25171U   25230.83337963  .00067048  00000+0  19455-2 0  9997
2 65150  51.8774   9.4558 0005840 179.1157 296.6761 15.34877320  2166
KUIPER-00114            
1 65151U 25171V   25230.83337963  .00067897  00000+0  19612-2 0  9995
2 65151  51.8770   9.4450 0005810 169.8449 310.6334 15.35014445  1592
KUIPER-00115            
1 65152U 25171W   25230.83337963  .00067978  00000+0  19389-2 0  9997
2 65152  51.8768   9.4213 0005950 152.4912 338.3447 15.35409682  1655
KUIPER-00116            
1 65153U 25171X   25230.83337963  .00067503  00000+0  19405-2 0  9991
2 65153  51.8777   9.4418 0005439 167.2224 316.2813 15.35169484  1357
KUIPER-00118            
1 65154U 25171Y   25230.83337963  .00067079  00000+0  19424-2 0  9991
2 65154  51.8773   9.4510 0005279 174.4208 303.6945 15.34944671  2356
KUIPER-00119            
1 65155U 25171Z   25230.83337963  .00075468  00000+0  21394-2 0  9992
2 65155  51.8771   9.4108 0006454 151.9795 344.4809 15.35549767  1534
